ONEWEB-0120             
1 47266U 20100J   25229.27142404  .00000360  00000+0  96606-3 0  9990
2 47266  87.8865  51.0865 0001625  91.0714 269.0601 13.12440578224861
ONEWEB-0121             
1 47267U 20100K   25229.56488778  .00000424  00000+0  11439-2 0  9991
2 47267  87.8856  50.9963 0001795  86.6193 273.5141 13.12444482224810
ONEWEB-0122             
1 47268U 20100L   25229.55987590  .00000334  00000+0  89231-3 0  9993
2 47268  87.8854  51.0002 0001668  85.5561 274.5758 13.12443278224728
ONEWEB-0123             
1 47269U 20100M   25229.55513195 -.00000371  00000+0 -10667-2 0  9999
2 47269  87.8852  51.0291 0001805  93.9071 266.2264 13.12444894224869
ONEWEB-0124             
1 47270U 20100N   25229.54378373 -.00000241  00000+0 -70660-3 0  9993
2 47270  87.8865  51.0322 0001943  87.9885 272.1466 13.12443836224741
ONEWEB-0125             
1 47271U 20100P   25229.44483574 -.00000228  00000+0 -66810-3 0  9990
2 47271  87.8863  51.0148 0001991  95.6212 264.5144 13.12440598224794
ONEWEB-0126             
1 47272U 20100Q   25229.54229606 -.00000214  00000+0 -62953-3 0  9995
2 47272  87.8871  51.0150 0001672  91.0724 269.0597 13.12444662224878
ONEWEB-0127             
1 47273U 20100R   25229.58433847  .00000250  00000+0  66041-3 0  9994
2 47273  87.8864  51.0207 0001595  88.7471 271.3840 13.12441083224905
